BEIDOU-3 G3 (PRN 143)   
1 45807U 20040A   26087.56663345 -.00000372  00000+0  00000+0 0  9992
2 45807   2.2495  67.1850 0004115 320.6142 112.7261  1.00272975 21268
GALAXY 30 (WAAS/PRN 135)
1 46114U 20056C   26087.52000659  .00000000  00000+0  00000+0 0  9997
2 46114   0.0233 174.0786 0002163 206.5221 227.5339  1.00270163 20484
QZS-1R (QZSS/PRN 196)   
1 49336U 21096A   26086.85682424 -.00000231  00000+0  00000+0 0  9999
2 49336  37.2951  80.7807 0749206 270.2290 277.9575  1.00282705 16198
QZS-6 (QZSS/PRN 200)    
1 62876U 25023A   26087.55337514 -.00000252  00000+0  00000+0 0  9995
2 62876   0.0516  69.0259 0002287 295.2437 111.4075  1.00270360  4153
