[{"OBJECT_NAME":"BEIDOU-3 G3 (PRN 143)","OBJECT_ID":"2020-040A","EPOCH":"2026-03-28T13:35:57.130080","MEAN_MOTION":1.00272975,"ECCENTRICITY":0.00041155,"INCLINATION":2.2495,"RA_OF_ASC_NODE":67.185,"ARG_OF_PERICENTER":320.6142,"MEAN_ANOMALY":112.7261,"EPHEMERIS_TYPE":0,"CLASSIFICATION_TYPE":"U","NORAD_CAT_ID":45807,"ELEMENT_SET_NO":999,"REV_AT_EPOCH":2126,"BSTAR":0,"MEAN_MOTION_DOT":-3.72e-6,"MEAN_MOTION_DDOT":0},{"OBJECT_NAME":"GALAXY 30 (WAAS/PRN 135)","OBJECT_ID":"2020-056C","EPOCH":"2026-03-28T12:28:48.569376","MEAN_MOTION":1.00270163,"ECCENTRICITY":0.00021631,"INCLINATION":0.0233,"RA_OF_ASC_NODE":174.0786,"ARG_OF_PERICENTER":206.5221,"MEAN_ANOMALY":227.5339,"EPHEMERIS_TYPE":0,"CLASSIFICATION_TYPE":"U","NORAD_CAT_ID":46114,"ELEMENT_SET_NO":999,"REV_AT_EPOCH":2048,"BSTAR":0,"MEAN_MOTION_DOT":0,"MEAN_MOTION_DDOT":0},{"OBJECT_NAME":"QZS-1R (QZSS/PRN 196)","OBJECT_ID":"2021-096A","EPOCH":"2026-03-27T20:33:49.614336","MEAN_MOTION":1.00282705,"ECCENTRICITY":0.0749206,"INCLINATION":37.2951,"RA_OF_ASC_NODE":80.7807,"ARG_OF_PERICENTER":270.229,"MEAN_ANOMALY":277.9575,"EPHEMERIS_TYPE":0,"CLASSIFICATION_TYPE":"U","NORAD_CAT_ID":49336,"ELEMENT_SET_NO":999,"REV_AT_EPOCH":1619,"BSTAR":0,"MEAN_MOTION_DOT":-2.31e-6,"MEAN_MOTION_DDOT":0},{"OBJECT_NAME":"QZS-6 (QZSS/PRN 200)","OBJECT_ID":"2025-023A","EPOCH":"2026-03-28T13:16:51.612096","MEAN_MOTION":1.0027036,"ECCENTRICITY":0.00022873,"INCLINATION":0.0516,"RA_OF_ASC_NODE":69.0259,"ARG_OF_PERICENTER":295.2437,"MEAN_ANOMALY":111.4075,"EPHEMERIS_TYPE":0,"CLASSIFICATION_TYPE":"U","NORAD_CAT_ID":62876,"ELEMENT_SET_NO":999,"REV_AT_EPOCH":415,"BSTAR":0,"MEAN_MOTION_DOT":-2.52e-6,"MEAN_MOTION_DDOT":0}]
